GSAT0101 (GALILEO-PFM)  
1 37846U 11060A   25321.09120301 -.00000083  00000+0  00000+0 0  9995
2 37846  57.0584 347.5164 0002422 304.9888  55.0418  1.70475830 87507
GSAT0102 (GALILEO-FM2)  
1 37847U 11060B   25322.43034889 -.00000080  00000+0  00000+0 0  9997
2 37847  57.0590 347.4806 0004409 303.2304 204.1118  1.70476049 87539
GSAT0103 (GALILEO-FM3)  
1 38857U 12055A   25321.71779440  .00000032  00000+0  00000+0 0  9999
2 38857  55.6776 107.3534 0001959 267.7118  92.2398  1.70473465 81401
GSAT0201 (GALILEO 5)    
1 40128U 14050A   25322.13428674 -.00000088  00000+0  00000+0 0  9999
2 40128  49.1054 282.0661 1645556 171.3507 191.8946  1.85519720 74402
GSAT0202 (GALILEO 6)    
1 40129U 14050B   25320.23467928 -.00000094  00000+0  00000+0 0  9991
2 40129  49.1235 281.2266 1645940 172.0328 190.9583  1.85520442 76538
GSAT0203 (GALILEO 7)    
1 40544U 15017A   25320.86936097 -.00000084  00000+0  00000+0 0  9992
2 40544  56.8522 347.3860 0006303 263.8580  96.1230  1.70476230 65587
GSAT0204 (GALILEO 8)    
1 40545U 15017B   25320.53818771 -.00000085  00000+0  00000+0 0  9996
2 40545  56.8585 347.4127 0006177 255.1530 104.8312  1.70475751 28621
GSAT0205 (GALILEO 9)    
1 40889U 15045A   25322.06628247 -.00000002  00000+0  00000+0 0  9994
2 40889  55.0125 227.4400 0005547  35.1950 324.8938  1.70473010 63416
GSAT0206 (GALILEO 10)   
1 40890U 15045B   25320.52715171 -.00000015  00000+0  00000+0 0  9992
2 40890  55.0123 227.4776 0003354  26.6868 333.3722  1.70473027 63413
GSAT0209 (GALILEO 12)   
1 41174U 15079A   25321.86866648  .00000031  00000+0  00000+0 0  9996
2 41174  55.6976 107.0635 0002363   5.6767 354.2988  1.70474436 61174
GSAT0208 (GALILEO 11)   
1 41175U 15079B   25320.91565210  .00000034  00000+0  00000+0 0  9996
2 41175  55.6959 107.0868 0001946  19.1445 340.8405  1.70474199 61578
GSAT0211 (GALILEO 14)   
1 41549U 16030A   25321.03948102 -.00000011  00000+0  00000+0 0  9994
2 41549  55.1618 227.5308 0003715 358.7417   1.3021  1.70473074 59058
GSAT0210 (GALILEO 13)   
1 41550U 16030B   25321.88356500 -.00000003  00000+0  00000+0 0  9995
2 41550  55.1608 227.5057 0001674 248.0508 111.9820  1.70473579 59060
GSAT0207 (GALILEO 15)   
1 41859U 16069A   25322.16199333  .00000030  00000+0  00000+0 0  9999
2 41859  55.3678 106.9307 0001934 334.9422  25.0198  1.70474314 55807
GSAT0212 (GALILEO 16)   
1 41860U 16069B   25320.84253299  .00000034  00000+0  00000+0 0  9990
2 41860  55.3642 106.9626 0002500  40.4027 319.5940  1.70474521 56036
GSAT0213 (GALILEO 17)   
1 41861U 16069C   25322.38328419  .00000029  00000+0  00000+0 0  9993
2 41861  55.3673 106.9276 0001744 286.3946  73.5567  1.70474846 55921
GSAT0214 (GALILEO 18)   
1 41862U 16069D   25321.94268408  .00000030  00000+0  00000+0 0  9998
2 41862  55.3657 106.9327 0000788 302.0857  57.8792  1.70474633 56048
GSAT0215 (GALILEO 19)   
1 43055U 17079A   25321.25951683 -.00000008  00000+0  00000+0 0  9990
2 43055  55.1394 227.3394 0001619 310.4892  49.5433  1.70473835 49379
GSAT0216 (GALILEO 20)   
1 43056U 17079B   25319.79105279 -.00000021  00000+0  00000+0 0  9994
2 43056  55.1404 227.3797 0003034 305.4999  54.5101  1.70473909 49363
GSAT0217 (GALILEO 21)   
1 43057U 17079C   25320.59834831 -.00000014  00000+0  00000+0 0  9990
2 43057  55.1382 227.3556 0002952 330.5429  29.4829  1.70473813 49369
GSAT0218 (GALILEO 22)   
1 43058U 17079D   25321.99158337 -.00000002  00000+0  00000+0 0  9993
2 43058  55.1378 227.3149 0003319 298.2129  61.8055  1.70473928 49412
GSAT0221 (GALILEO 25)   
1 43564U 18060A   25320.72108969 -.00000084  00000+0  00000+0 0  9992
2 43564  57.2334 347.5210 0006380 275.8944  84.0862  1.70476106 45544
GSAT0222 (GALILEO 26)   
1 43565U 18060B   25321.52697354 -.00000082  00000+0  00000+0 0  9991
2 43565  57.2370 347.5022 0006101 256.1599 103.8257  1.70475841 45605
GSAT0219 (GALILEO 23)   
1 43566U 18060C   25321.74814577 -.00000081  00000+0  00000+0 0  9993
2 43566  57.2358 347.4977 0005551 280.7493  79.2417  1.70476131 45588
GSAT0220 (GALILEO 24)   
1 43567U 18060D   25320.79589905 -.00000084  00000+0  00000+0 0  9995
2 43567  57.2360 347.5233 0005764 276.8683  83.1195  1.70476116 45558
GSAT0223 (GALILEO 27)   
1 49809U 21116A   25322.40648346 -.00000080  00000+0  00000+0 0  9997
2 49809  57.2249 347.3709 0004550 241.0487 118.1304  1.70476294 24581
GSAT0224 (GALILEO 28)   
1 49810U 21116B   25322.26908623 -.00000080  00000+0  00000+0 0  9990
2 49810  57.2256 347.3733 0003695 243.6757 143.7684  1.70476313 24616
GSAT0225 (GALILEO 29)   
1 59598U 24079A   25320.52665071  .00000034  00000+0  00000+0 0  9997
2 59598  54.9855 107.0277 0002173 160.1530 230.2876  1.70474779  9695
GSAT0227 (GALILEO 30)   
1 59600U 24079C   25321.24702358  .00000032  00000+0  00000+0 0  9999
2 59600  54.9810 107.0071 0003754 111.0292 248.9872  1.70474694  9753
GSAT0232 (GALILEO 32)   
1 61182U 24167A   25321.21882516 -.00000008  00000+0  00000+0 0  9991
2 61182  55.2503 227.1313 0002622 227.6462 309.7265  1.70473444  7261
GSAT0226 (GALILEO 31)   
1 61183U 24167B   25322.21817610  .00000000  00000+0  00000+0 0  9997
2 61183  55.2486 227.1095 0000440 178.2203   5.1234  1.70473559  7258
